{
  "norad_id": 67033,
  "name": "STARLINK-36137",
  "history": [
    {
      "epoch": "2026-04-17T12:47:15.960768Z",
      "apogee_km": 484.1509625983754,
      "perigee_km": 481.91614212605964,
      "latitude_deg": 6.176313673682419e-05,
      "longitude_deg": 140.89554516595524,
      "height_km": 482.84281205447917,
      "semi_major_axis_km": 6861.170552362217,
      "eccentricity": 0.00016286,
      "inclination_deg": 43.0027,
      "raan_deg": 178.3768,
      "arg_perigee_deg": 268.3547,
      "mean_anomaly_deg": 91.7119,
      "mean_motion_rev_day": 15.27585191
    },
    {
      "epoch": "2026-04-18T12:19:36.425856Z",
      "apogee_km": 484.06481858885763,
      "perigee_km": 481.89944939017096,
      "latitude_deg": -3.9005520981044956e-05,
      "longitude_deg": 141.30505392338165,
      "height_km": 482.9780475158023,
      "semi_major_axis_km": 6861.119133989514,
      "eccentricity": 0.0001578,
      "inclination_deg": 43.0005,
      "raan_deg": 172.8384,
      "arg_perigee_deg": 258.3264,
      "mean_anomaly_deg": 101.741,
      "mean_motion_rev_day": 15.27602363
    },
    {
      "epoch": "2026-04-19T11:51:56.974752Z",
      "apogee_km": 484.23941183137595,
      "perigee_km": 481.7363362548276,
      "latitude_deg": -6.247532393031158e-05,
      "longitude_deg": 141.7160937929828,
      "height_km": 482.48333734452183,
      "semi_major_axis_km": 6861.124874043101,
      "eccentricity": 0.00018241,
      "inclination_deg": 43.0014,
      "raan_deg": 167.3018,
      "arg_perigee_deg": 283.0097,
      "mean_anomaly_deg": 77.055,
      "mean_motion_rev_day": 15.27600446
    },
    {
      "epoch": "2026-04-20T09:50:08.956032Z",
      "apogee_km": 483.9946765275499,
      "perigee_km": 482.1871546454686,
      "latitude_deg": 4.176567794932085e-06,
      "longitude_deg": 166.09066570272074,
      "height_km": 483.1440894354065,
      "semi_major_axis_km": 6861.227915586509,
      "eccentricity": 0.00013172,
      "inclination_deg": 42.999,
      "raan_deg": 162.1285,
      "arg_perigee_deg": 252.1688,
      "mean_anomaly_deg": 107.902,
      "mean_motion_rev_day": 15.27566034
    },
    {
      "epoch": "2026-04-21T14:04:58.141056Z",
      "apogee_km": 484.0149234073169,
      "perigee_km": 482.0046074050524,
      "latitude_deg": 1.9847310598159342e-05,
      "longitude_deg": 94.58037907409513,
      "height_km": 482.8933396454726,
      "semi_major_axis_km": 6861.146765406184,
      "eccentricity": 0.0001465,
      "inclination_deg": 43.0011,
      "raan_deg": 155.4832,
      "arg_perigee_deg": 263.9052,
      "mean_anomaly_deg": 96.1633,
      "mean_motion_rev_day": 15.27593135
    },
    {
      "epoch": "2026-04-22T13:37:18.848928Z",
      "apogee_km": 484.07390109696735,
      "perigee_km": 481.9908500745396,
      "latitude_deg": 7.329799810342812e-06,
      "longitude_deg": 94.98856457272052,
      "height_km": 482.7547468998328,
      "semi_major_axis_km": 6861.169375585753,
      "eccentricity": 0.0001518,
      "inclination_deg": 43.0011,
      "raan_deg": 149.9444,
      "arg_perigee_deg": 273.0025,
      "mean_anomaly_deg": 87.0653,
      "mean_motion_rev_day": 15.27585584
    },
    {
      "epoch": "2026-04-23T10:01:21.165312Z",
      "apogee_km": 484.50542161062003,
      "perigee_km": 481.57172016002096,
      "latitude_deg": 5.2915492444695824e-05,
      "longitude_deg": 143.34223513432593,
      "height_km": 482.4298766684403,
      "semi_major_axis_km": 6861.17557088532,
      "eccentricity": 0.00021379,
      "inclination_deg": 43.0027,
      "raan_deg": 145.1455,
      "arg_perigee_deg": 285.2677,
      "mean_anomaly_deg": 74.7939,
      "mean_motion_rev_day": 15.27583515
    },
    {
      "epoch": "2026-04-24T11:07:50.953152Z",
      "apogee_km": 484.17346724807794,
      "perigee_km": 482.0794096466643,
      "latitude_deg": -4.185777645642311e-06,
      "longitude_deg": 119.77859660310607,
      "height_km": 482.73362671440566,
      "semi_major_axis_km": 6861.26343844737,
      "eccentricity": 0.0001526,
      "inclination_deg": 43.0034,
      "raan_deg": 139.2372,
      "arg_perigee_deg": 279.3445,
      "mean_anomaly_deg": 80.7234,
      "mean_motion_rev_day": 15.27554171
    },
    {
      "epoch": "2026-04-25T18:30:58.235904Z",
      "apogee_km": 484.23520285888935,
      "perigee_km": 481.5593994814344,
      "latitude_deg": 4.878223669721383e-06,
      "longitude_deg": 0.3197101568050391,
      "height_km": 483.1180289745802,
      "semi_major_axis_km": 6861.034301170162,
      "eccentricity": 0.000195,
      "inclination_deg": 43.0038,
      "raan_deg": 131.8476,
      "arg_perigee_deg": 250.649,
      "mean_anomaly_deg": 109.4151,
      "mean_motion_rev_day": 15.27630695
    },
    {
      "epoch": "2026-04-26T18:03:20.050560Z",
      "apogee_km": 483.4664281935002,
      "perigee_km": 482.4950311453331,
      "latitude_deg": -4.693484568252061e-06,
      "longitude_deg": 0.7253774368042204,
      "height_km": 483.110189951901,
      "semi_major_axis_km": 6861.117729669416,
      "eccentricity": 7.079e-05,
      "inclination_deg": 43.0003,
      "raan_deg": 126.3109,
      "arg_perigee_deg": 223.2805,
      "mean_anomaly_deg": 136.7991,
      "mean_motion_rev_day": 15.27602832
    },
    {
      "epoch": "2026-04-27T17:35:40.655616Z",
      "apogee_km": 483.7350129200104,
      "perigee_km": 482.28319440447467,
      "latitude_deg": 2.871108755279059e-05,
      "longitude_deg": 1.13264468063616,
      "height_km": 483.13661696246567,
      "semi_major_axis_km": 6861.146103662242,
      "eccentricity": 0.0001058,
      "inclination_deg": 43.0015,
      "raan_deg": 120.7707,
      "arg_perigee_deg": 241.0741,
      "mean_anomaly_deg": 119.0005,
      "mean_motion_rev_day": 15.27593356
    },
    {
      "epoch": "2026-04-28T17:08:01.539744Z",
      "apogee_km": 483.7444172523574,
      "perigee_km": 482.3721781928125,
      "latitude_deg": -2.4974437469245723e-05,
      "longitude_deg": 1.540453054448008,
      "height_km": 483.0908405394665,
      "semi_major_axis_km": 6861.195297722585,
      "eccentricity": 0.0001,
      "inclination_deg": 43.0019,
      "raan_deg": 115.2323,
      "arg_perigee_deg": 248.0861,
      "mean_anomaly_deg": 111.9884,
      "mean_motion_rev_day": 15.27576927
    },
    {
      "epoch": "2026-04-29T10:23:44.608416Z",
      "apogee_km": 483.9669433024055,
      "perigee_km": 482.06805018388695,
      "latitude_deg": 5.084314526112579e-05,
      "longitude_deg": 97.84245776251045,
      "height_km": 482.95004107571475,
      "semi_major_axis_km": 6861.1544967431455,
      "eccentricity": 0.00013838,
      "inclination_deg": 43.0038,
      "raan_deg": 111.1726,
      "arg_perigee_deg": 260.5751,
      "mean_anomaly_deg": 99.4945,
      "mean_motion_rev_day": 15.27590553
    }
  ]
}